54675,ONEWEB-0612,2022,108.94,148.0,+,87.92,Active,1,LEO,USA,UK,Commercial,Communications,Falcon,1 54675U 22166AK  24045.56661700  .00000022  00000+0  21415-4 0  9990,2 54675  87.9205  53.8708 0001790 101.0426 259.0910 13.21823408 58665,13.21823408,0.000179,LEO
54676,ONEWEB-0615,2022,108.94,148.0,+,87.92,Active,1,LEO,USA,UK,Commercial,Communications,Falcon,1 54676U 22166AL  24045.54769704  .00000040  00000+0  65924-4 0  9995,2 54676  87.9204  53.8989 0002094  97.2900 262.8472 13.21825571 58676,13.21825571,0.0002094,LEO
54677,ONEWEB-0655,2022,108.94,148.0,+,87.92,Active,1,LEO,USA,UK,Commercial,Communications,Falcon,1 54677U 22166AM  24045.52089116  .00000139  00000+0  30557-3 0  9998,2 54677  87.9205  53.9054 0002395  99.2247 260.9158 13.21825417 58660,13.21825417,0.0002395,LEO
54678,ONEWEB-0659,2022,108.94,148.0,+,87.92,Active,1,LEO,USA,UK,Commercial,Communications,Falcon,1 54678U 22166AN  24045.53823510  .00000032  00000+0  45652-4 0  9999,2 54678  87.9205  53.9106 0001781  81.7541 278.3795 13.21824930 58759,13.2182493,0.0001781,LEO
54679,ONEWEB-0685,2022,108.94,148.0,+,87.92,Active,1,LEO,USA,UK,Commercial,Communications,Falcon,1 54679U 22166AP  24045.53981658 -.00000064  00000+0 -18545-3 0  9995,2 54679  87.9205  53.8979 0002052  99.7846 260.3520 13.21825454 58643,13.21825454,0.0002052,LEO
54680,ONEWEB-0712,2022,109.37,148.0,+,87.91,Active,1,LEO,USA,UK,Commercial,Communications,Falcon,1 54680U 22166AQ  24045.49302907  .00000051  00000+0  98525-4 0  9997,2 54680  87.9051  38.6821 0002140  77.2002 282.9368 13.16592107 59724,13.16592107,0.000214,LEO
54681,ONEWEB-0714,2022,108.94,148.0,+,87.92,Active,1,LEO,USA,UK,Commercial,Communications,Falcon,1 54681U 22166AR  24045.54611241  .00000026  00000+0  30898-4 0  9999,2 54681  87.9207  53.8811 0002045 100.0224 260.1141 13.21823988 58761,13.21823988,0.0002045,LEO
55140,ONEWEB-0532,2023,109.29,148.0,+,87.92,Active,1,LEO,USA,UK,Commercial,Communications,Falcon,1 55140U 23004A   24045.58610787 -.00000008  00000+0 -53848-4 0  9992,2 55140  87.9251 175.6293 0001003 133.1032 227.0183 13.17649079 55177,13.17649079,0.0001003,LEO
